     3.04           N: GNSS NAV DATA    M: MIXED            RINEX VERSION / TYPE
ssrcrin-15.6.1x                         20250101 121500 UTC PGM / RUN BY / DATE 
    18                                                      LEAP SECONDS        
                                                            END OF HEADER       
S36 2025 01 01 12 24 32 0.000000000000E+00 0.000000000000E+00 3.038860000000E+05
     4.200368800000E+04 0.000000000000E+00 0.000000000000E+00 6.300000000000E+01
     3.674846960000E+03 0.000000000000E+00 0.000000000000E+00 3.276700000000E+04
     0.000000000000E+00 0.000000000000E+00 0.000000000000E+00 1.880000000000E+02
S21 2025 01 01 12 24 48 0.000000000000E+00 0.000000000000E+00 3.038880000000E+05
     4.200468400000E+04 0.000000000000E+00 0.000000000000E+00 6.300000000000E+01
    -3.674932960000E+03 0.000000000000E+00 0.000000000000E+00 3.276700000000E+04
     0.000000000000E+00 0.000000000000E+00 0.000000000000E+00 1.210000000000E+02
S23 2025 01 01 12 25 20 0.000000000000E+00 0.000000000000E+00 3.039300000000E+05
     3.866796400000E+04 0.000000000000E+00 0.000000000000E+00 6.300000000000E+01
     1.681330800000E+04 0.000000000000E+00 0.000000000000E+00 3.276700000000E+04
     0.000000000000E+00 0.000000000000E+00 0.000000000000E+00 8.600000000000E+01
E27 2025 01 01 12 10 00-5.448502488434E-04-9.933387445926E-12 0.000000000000E+00
     1.240000000000E+02-1.971875000000E+01 3.493359798172E-09-4.551148619094E-01
    -9.331852197647E-07 3.201365470886E-04 6.062909960747E-06 5.440600934982E+03
     3.030000000000E+05 2.048909664154E-08 2.413599531674E+00-1.490116119385E-08
     9.642113789999E-01 2.074062500000E+02 5.518078338340E-01-5.533801933634E-09
    -6.660991742757E-10 2.580000000000E+02 2.347000000000E+03
     3.120000000000E+00 0.000000000000E+00-4.656612873077E-10 0.000000000000E+00
     3.040100000000E+05
E36 2025 01 01 12 10 00-3.329879837111E-04-5.329070518201E-12 0.000000000000E+00
     1.240000000000E+02 1.599687500000E+02 2.563678216059E-09 1.374954392187E+00
     7.547438144684E-06 3.704384434968E-04-8.568167686462E-08 5.440606077194E+03
     3.030000000000E+05 2.421438694000E-08-1.775860963646E+00 6.519258022308E-08
     9.996833315205E-01 3.604687500000E+02-1.009686700978E+00-5.609876531018E-09
     3.300137463972E-10 5.170000000000E+02 2.347000000000E+03
     3.120000000000E+00 0.000000000000E+00 2.095475792885E-09 3.725290298462E-09
     3.040170000000E+05
G32 2025 01 01 13 59 44-5.493178032339E-04 6.593836587854E-12 0.000000000000E+00
     9.000000000000E+00-1.250937500000E+02 4.131243511446E-09-1.647424315184E+00
    -6.360933184624E-06 8.255997672677E-03 1.023523509502E-05 5.153779582977E+03
     3.095840000000E+05 1.918524503708E-07 2.217036871456E-01 3.911554813385E-08
     9.640876614809E-01 1.807812500000E+02-2.114264721509E+00-7.647104246872E-09
     2.396528396456E-10 1.000000000000E+00 2.347000000000E+03 0.000000000000E+00
     2.000000000000E+00 0.000000000000E+00 9.313225746155E-10 9.000000000000E+00
     3.040380000000E+05 4.000000000000E+00
S36 2025 01 01 12 27 12 0.000000000000E+00 0.000000000000E+00 3.040380000000E+05
     4.200368800000E+04 0.000000000000E+00 0.000000000000E+00 6.300000000000E+01
     3.674846960000E+03 0.000000000000E+00 0.000000000000E+00 3.276700000000E+04
     0.000000000000E+00 0.000000000000E+00 0.000000000000E+00 1.890000000000E+02
S21 2025 01 01 12 27 28 0.000000000000E+00 0.000000000000E+00 3.040530000000E+05
     4.200468400000E+04 0.000000000000E+00 0.000000000000E+00 6.300000000000E+01
    -3.674932960000E+03 0.000000000000E+00 0.000000000000E+00 3.276700000000E+04
     0.000000000000E+00 0.000000000000E+00 0.000000000000E+00 1.220000000000E+02
S23 2025 01 01 12 27 28 0.000000000000E+00 0.000000000000E+00 3.040580000000E+05
     3.866796400000E+04 0.000000000000E+00 0.000000000000E+00 6.300000000000E+01
     1.681330800000E+04 0.000000000000E+00 0.000000000000E+00 3.276700000000E+04
     0.000000000000E+00 0.000000000000E+00 0.000000000000E+00 8.700000000000E+01
E07 2025 01 01 12 10 00-1.612724736333E-04-2.032152224274E-12 0.000000000000E+00
     1.240000000000E+02-1.830000000000E+02 2.752971815183E-09 2.504753357397E+00
    -8.327886462212E-06 1.234246883541E-04 1.196190714836E-05 5.440624494553E+03
     3.030000000000E+05-1.117587089539E-08 3.132935604715E-01 2.793967723846E-08
     9.636271963121E-01 8.518750000000E+01-2.997237459542E-01-5.220931758478E-09
     3.428714248282E-10 5.170000000000E+02 2.347000000000E+03
     3.120000000000E+00 0.000000000000E+00 3.026798367500E-09 4.190951585770E-09
     3.041150000000E+05
S23 2025 01 01 12 29 36 0.000000000000E+00 0.000000000000E+00 3.041850000000E+05
     3.866796400000E+04 0.000000000000E+00 0.000000000000E+00 6.300000000000E+01
     1.681330800000E+04 0.000000000000E+00 0.000000000000E+00 3.276700000000E+04
     0.000000000000E+00 0.000000000000E+00 0.000000000000E+00 8.800000000000E+01
E07 2025 01 01 12 10 00-1.612739288248E-04-2.032152224274E-12 0.000000000000E+00
     1.240000000000E+02-1.830000000000E+02 2.752971815183E-09 2.504753357397E+00
    -8.327886462212E-06 1.234246883541E-04 1.196190714836E-05 5.440624494553E+03
     3.030000000000E+05-1.117587089539E-08 3.132935604715E-01 2.793967723846E-08
     9.636271963121E-01 8.518750000000E+01-2.997237459542E-01-5.220931758478E-09
     3.428714248282E-10 2.580000000000E+02 2.347000000000E+03
     3.120000000000E+00 0.000000000000E+00 3.026798367500E-09 0.000000000000E+00
     3.041900000000E+05
S36 2025 01 01 12 29 52 0.000000000000E+00 0.000000000000E+00 3.041940000000E+05
     4.200368800000E+04 0.000000000000E+00 0.000000000000E+00 6.300000000000E+01
     3.674846960000E+03 0.000000000000E+00 0.000000000000E+00 3.276700000000E+04
     0.000000000000E+00 0.000000000000E+00 0.000000000000E+00 1.900000000000E+02
